{
"type": "FeatureCollection",
"name": "Soatanana 2",
"crs": { "type": "name", "properties": { "name": "urn:ogc:def:crs:OGC:1.3:CRS84" } },
"features": [
{ "type": "Feature", "properties": { "route_fid": 0, "route_point_id": 0, "ele": null, "time": null, "magvar": null, "geoidheight": null, "name": "Soatanana", "cmt": null, "desc": null, "src": null, "link1_href": null, "link1_text": null, "link1_type": null, "link2_href": null, "link2_text": null, "link2_type": null, "sym": null, "type": null, "fix": null, "sat": null, "hdop": null, "vdop": null, "pdop": null, "ageofdgpsdata": null, "dgpsid": null }, "geometry": { "type": "Point", "coordinates": [ 46.70972749640395, -21.316545446618026, 0.0 ] } }
]
}
