{
"type": "FeatureCollection",
"name": "Sary Madagascar",
"crs": { "type": "name", "properties": { "name": "urn:ogc:def:crs:OGC:1.3:CRS84" } },
"features": [
{ "type": "Feature", "properties": { "FIPS_CNTRY": "MA", "GMI_CNTRY": "MDG", "CNTRY_NAME": "Madagascar", "SOVEREIGN": "Madagascar", "POP_CNTRY": 13046690, "SQKM_CNTRY": 594856.375, "SQMI_CNTRY": 229674.094, "CURR_TYPE": "Franc", "CURR_CODE": "MGF", "LANDLOCKED": "N", "COLOR_MAP": "3" }, "geometry": { "type": "MultiPolygon", "coordinates": [ [ [ [ 46.32916259765625, -15.645000457763672 ], [ 46.3316650390625, -15.634166717529297 ], [ 46.338333129882812, -15.624723434448242 ], [ 46.347221374511719, -15.615835189819336 ], [ 46.462776184082031, -15.506111145019531 ], [ 46.473609924316406, -15.498056411743164 ], [ 46.48388671875, -15.49333381652832 ], [ 46.574165344238281, -15.443334579467773 ], [ 46.705276489257812, -15.364723205566406 ], [ 46.833610534667969, -15.268056869506836 ], [ 46.841659545898438, -15.261945724487305 ], [ 46.855552673339844, -15.247777938842773 ], [ 46.880271911621094, -15.230555534362793 ], [ 46.889442443847656, -15.225833892822266 ], [ 46.947219848632812, -15.198890686035156 ], [ 46.959159851074219, -15.197223663330078 ], [ 46.968330383300781, -15.20222282409668 ], [ 46.974716186523438, -15.210000991821289 ], [ 47.076385498046875, -15.334445953369141 ], [ 47.071937561035156, -15.343889236450195 ], [ 47.05499267578125, -15.368890762329102 ], [ 47.044441223144531, -15.379446029663086 ], [ 47.013053894042969, -15.397500991821289 ], [ 47.007217407226562, -15.405834197998047 ], [ 46.96221923828125, -15.502223968505859 ], [ 46.958885192871094, -15.513334274291992 ], [ 46.956939697265625, -15.542778968811035 ], [ 46.959442138671875, -15.558055877685547 ], [ 46.969444274902344, -15.554723739624023 ], [ 46.974716186523438, -15.545833587646484 ], [ 47.042221069335938, -15.493612289428711 ], [ 47.093048095703125, -15.47972297668457 ], [ 47.129013061523438, -15.445183753967285 ], [ 47.142681121826172, -15.444637298583984 ], [ 47.180778503417969, -15.458770751953125 ], [ 47.2066650390625, -15.448465347290039 ], [ 47.223617553710938, -15.448465347290039 ], [ 47.236740112304688, -15.417294502258301 ], [ 47.21221923828125, -15.413333892822266 ], [ 47.19610595703125, -15.401390075683594 ], [ 47.1119384765625, -15.305557250976562 ], [ 47.083053588867188, -15.260278701782227 ], [ 47.059715270996094, -15.223333358764648 ], [ 47.058052062988281, -15.198057174682617 ], [ 47.058326721191406, -15.185001373291016 ], [ 47.06304931640625, -15.17527961730957 ], [ 47.080551147460938, -15.150278091430664 ], [ 47.108745574951172, -15.115556716918945 ], [ 47.222770690917969, -14.993890762329102 ], [ 47.310554504394531, -14.912500381469727 ], [ 47.299995422363281, -14.875278472900391 ], [ 47.286880493164062, -14.855733871459961 ], [ 47.292770385742188, -14.84222412109375 ], [ 47.316383361816406, -14.809722900390625 ], [ 47.341659545898438, -14.777778625488281 ], [ 47.389717102050781, -14.726667404174805 ], [ 47.454994201660156, -14.665279388427734 ], [ 47.465553283691406, -14.663612365722656 ], [ 47.500831604003906, -14.711668014526367 ], [ 47.506385803222656, -14.826946258544922 ], [ 47.499443054199219, -14.848333358764648 ], [ 47.4949951171875, -14.857778549194336 ], [ 47.473468780517578, -14.885139465332031 ], [ 47.448326110839844, -14.909723281860352 ], [ 47.436103820800781, -14.92527961730957 ], [ 47.412498474121094, -14.971389770507812 ], [ 47.41082763671875, -14.982500076293945 ], [ 47.409164428710938, -15.086944580078125 ], [ 47.411109924316406, -15.098611831665039 ], [ 47.416664123535156, -15.106945037841797 ], [ 47.427215576171875, -15.110555648803711 ], [ 47.438606262207031, -15.108057022094727 ], [ 47.448051452636719, -15.103334426879883 ], [ 47.483329772949219, -15.082778930664062 ], [ 47.491943359375, -15.076667785644531 ], [ 47.566940307617188, -14.950279235839844 ], [ 47.613052368164062, -14.857224464416504 ], [ 47.624992370605469, -14.82722282409668 ], [ 47.63916015625, -14.787500381469727 ], [ 47.643608093261719, -14.778057098388672 ], [ 47.687774658203125, -14.701946258544922 ], [ 47.6986083984375, -14.683612823486328 ], [ 47.811275482177734, -14.603890419006348 ], [ 47.968605041503906, -14.621667861938477 ], [ 47.978607177734375, -14.625834465026855 ], [ 47.984161376953125, -14.634166717529297 ], [ 47.995552062988281, -14.662500381469727 ], [ 47.998886108398438, -14.686668395996094 ], [ 47.997772216796875, -14.706390380859375 ], [ 47.991661071777344, -14.728334426879883 ], [ 47.98944091796875, -14.740001678466797 ], [ 47.987495422363281, -14.760000228881836 ], [ 47.997077941894531, -14.767223358154297 ], [ 48.013328552246094, -14.749444961547852 ], [ 48.020828247070312, -14.728055953979492 ], [ 48.022499084472656, -14.712361335754395 ], [ 48.015274047851562, -14.635278701782227 ], [ 48.006942749023438, -14.622777938842773 ], [ 47.941108703613281, -14.575834274291992 ], [ 47.931938171386719, -14.570835113525391 ], [ 47.919166564941406, -14.569168090820312 ], [ 47.906387329101562, -14.570556640625 ], [ 47.895828247070312, -14.573612213134766 ], [ 47.887214660644531, -14.579168319702148 ], [ 47.827888488769531, -14.590890884399414 ], [ 47.750968933105469, -14.603196144104004 ], [ 47.720832824707031, -14.558334350585938 ], [ 47.70166015625, -14.442779541015625 ], [ 47.699440002441406, -14.420557022094727 ], [ 47.699714660644531, -14.408334732055664 ], [ 47.713882446289062, -14.357224464416504 ], [ 47.7177734375, -14.346944808959961 ], [ 47.778884887695312, -14.261390686035156 ], [ 47.829998016357422, -14.233890533447266 ], [ 47.852775573730469, -14.246389389038086 ], [ 47.875274658203125, -14.252223968505859 ], [ 47.927772521972656, -14.253889083862305 ], [ 47.935714721679688, -14.226222991943359 ], [ 47.941551208496094, -14.21522331237793 ], [ 47.948387145996094, -14.188556671142578 ], [ 47.948383331298828, -14.177972793579102 ], [ 47.93902587890625, -14.131112098693848 ], [ 47.919441223144531, -14.115001678466797 ], [ 47.904300689697266, -14.096945762634277 ], [ 47.914161682128906, -14.088890075683594 ], [ 47.925552368164062, -14.088890075683594 ], [ 47.945831298828125, -14.098333358764648 ], [ 47.987220764160156, -14.120279312133789 ], [ 47.995826721191406, -14.125834465026855 ], [ 48.0111083984375, -14.138334274291992 ], [ 48.01666259765625, -14.147500991821289 ], [ 48.014999389648438, -14.158334732055664 ], [ 47.997386932373047, -14.195028305053711 ], [ 47.987720489501953, -14.2314453125 ], [ 47.974441528320312, -14.284723281860352 ], [ 47.971382141113281, -14.306667327880859 ], [ 47.977771759033203, -14.320695877075195 ], [ 47.993049621582031, -14.326946258544922 ], [ 48.0030517578125, -14.322778701782227 ], [ 48.048332214355469, -14.155555725097656 ], [ 48.052497863769531, -14.106111526489258 ], [ 48.044715881347656, -14.079168319702148 ], [ 48.041107177734375, -14.068889617919922 ], [ 48.031402587890625, -14.063411712646484 ], [ 48.003883361816406, -14.056667327880859 ], [ 47.994720458984375, -14.051668167114258 ], [ 47.986381530761719, -14.046112060546875 ], [ 47.948051452636719, -14.01472282409668 ], [ 47.941940307617188, -14.006389617919922 ], [ 47.946388244628906, -13.996667861938477 ], [ 47.959159851074219, -13.995555877685547 ], [ 47.972496032714844, -13.996389389038086 ], [ 47.983055114746094, -13.994722366333008 ], [ 48.022079467773438, -13.960556030273438 ], [ 47.968048095703125, -13.92500114440918 ], [ 47.949165344238281, -13.915279388427734 ], [ 47.926666259765625, -13.909444808959961 ], [ 47.910552978515625, -13.897500991821289 ], [ 47.901664733886719, -13.878055572509766 ], [ 47.88360595703125, -13.826946258544922 ], [ 47.874443054199219, -13.788333892822266 ], [ 47.87249755859375, -13.776668548583984 ], [ 47.890274047851562, -13.651668548583984 ], [ 47.892494201660156, -13.639167785644531 ], [ 47.897773742675781, -13.616666793823242 ], [ 47.9052734375, -13.596389770507812 ], [ 47.912498474121094, -13.589445114135742 ], [ 47.927078247070312, -13.587362289428711 ], [ 47.942771911621094, -13.59222412109375 ], [ 47.955551147460938, -13.59222412109375 ], [ 48.019721984863281, -13.581111907958984 ], [ 48.026939392089844, -13.574167251586914 ], [ 48.047775268554688, -13.55000114440918 ], [ 48.045272827148438, -13.540279388427734 ], [ 48.037498474121094, -13.533889770507812 ], [ 48.028610229492188, -13.529167175292969 ], [ 48.023048400878906, -13.520833969116211 ], [ 48.0343017578125, -13.51472282409668 ], [ 48.063331604003906, -13.518056869506836 ], [ 48.071662902832031, -13.523612976074219 ], [ 48.15277099609375, -13.600833892822266 ], [ 48.16583251953125, -13.663612365722656 ], [ 48.174995422363281, -13.71583366394043 ], [ 48.183467864990234, -13.75763988494873 ], [ 48.241943359375, -13.804445266723633 ], [ 48.252494812011719, -13.808055877685547 ], [ 48.287216186523438, -13.808055877685547 ], [ 48.305549621582031, -13.798612594604492 ], [ 48.318050384521484, -13.790279388427734 ], [ 48.335548400878906, -13.773056030273438 ], [ 48.355827331542969, -13.603890419006348 ], [ 48.349437713623047, -13.585695266723633 ], [ 48.335273742675781, -13.565279006958008 ], [ 48.337635040283203, -13.550833702087402 ], [ 48.350555419921875, -13.542778015136719 ], [ 48.425552368164062, -13.525278091430664 ], [ 48.503883361816406, -13.515556335449219 ], [ 48.50054931640625, -13.444168090820312 ], [ 48.536941528320312, -13.425556182861328 ], [ 48.645271301269531, -13.441389083862305 ], [ 48.656387329101562, -13.444168090820312 ], [ 48.665550231933594, -13.449167251586914 ], [ 48.6824951171875, -13.439723968505859 ], [ 48.721382141113281, -13.423055648803711 ], [ 48.735965728759766, -13.424167633056641 ], [ 48.792770385742188, -13.367778778076172 ], [ 48.798332214355469, -13.354167938232422 ], [ 48.808326721191406, -13.286945343017578 ], [ 48.8155517578125, -13.219167709350586 ], [ 48.812492370605469, -13.194306373596191 ], [ 48.823883056640625, -13.120000839233398 ], [ 48.844718933105469, -13.077777862548828 ], [ 48.863609313964844, -13.041112899780273 ], [ 48.900135040283203, -12.972917556762695 ], [ 48.918052673339844, -12.956111907958984 ], [ 48.945549011230469, -12.887222290039062 ], [ 48.949165344238281, -12.876944541931152 ], [ 48.959442138671875, -12.822223663330078 ], [ 48.956939697265625, -12.811389923095703 ], [ 48.902496337890625, -12.67388916015625 ], [ 48.879714965820312, -12.573057174682617 ], [ 48.822219848632812, -12.507223129272461 ], [ 48.782218933105469, -12.46583366394043 ], [ 48.767219543457031, -12.458473205566406 ], [ 48.744720458984375, -12.446945190429688 ], [ 48.733604431152344, -12.437640190124512 ], [ 48.756385803222656, -12.403057098388672 ], [ 48.766387939453125, -12.399168014526367 ], [ 48.850830078125, -12.413333892822266 ], [ 48.8619384765625, -12.416112899780273 ], [ 48.870277404785156, -12.423055648803711 ], [ 48.87554931640625, -12.445001602172852 ], [ 48.879165649414062, -12.455278396606445 ], [ 48.895553588867188, -12.480001449584961 ], [ 48.907218933105469, -12.495834350585938 ], [ 48.918609619140625, -12.494722366333008 ], [ 48.944164276123047, -12.485834121704102 ], [ 48.953887939453125, -12.474445343017578 ], [ 48.961387634277344, -12.415000915527344 ], [ 48.969161987304688, -12.357778549194336 ], [ 48.97735595703125, -12.34514045715332 ], [ 49.063888549804688, -12.276668548583984 ], [ 49.096664428710938, -12.280555725097656 ], [ 49.150833129882812, -12.252223968505859 ], [ 49.164443969726562, -12.238056182861328 ], [ 49.169441223144531, -12.229167938232422 ], [ 49.191520690917969, -12.159778594970703 ], [ 49.189437866210938, -12.125556945800781 ], [ 49.163604736328125, -12.114168167114258 ], [ 49.129440307617188, -12.103612899780273 ], [ 49.157218933105469, -12.053890228271484 ], [ 49.224441528320312, -11.974722862243652 ], [ 49.258331298828125, -11.945556640625 ], [ 49.272216796875, -11.947084426879883 ], [ 49.283882141113281, -11.954168319702148 ], [ 49.297218322753906, -11.964445114135742 ], [ 49.309715270996094, -11.984445571899414 ], [ 49.320549011230469, -12.003055572509766 ], [ 49.347221374511719, -12.061944961547852 ], [ 49.356941223144531, -12.09083366394043 ], [ 49.3699951171875, -12.187223434448242 ], [ 49.367359161376953, -12.20583438873291 ], [ 49.355270385742188, -12.193889617919922 ], [ 49.349716186523438, -12.184446334838867 ], [ 49.335273742675781, -12.164445877075195 ], [ 49.325553894042969, -12.157501220703125 ], [ 49.261940002441406, -12.143890380859375 ], [ 49.251937866210938, -12.148056030273438 ], [ 49.242218017578125, -12.169861793518066 ], [ 49.232498168945312, -12.225000381469727 ], [ 49.270965576171875, -12.282084465026855 ], [ 49.327499389648438, -12.301111221313477 ], [ 49.346382141113281, -12.303335189819336 ], [ 49.360275268554688, -12.296390533447266 ], [ 49.368331909179688, -12.283611297607422 ], [ 49.370552062988281, -12.272223472595215 ], [ 49.366386413574219, -12.262500762939453 ], [ 49.428604125976562, -12.282777786254883 ], [ 49.518325805664062, -12.345834732055664 ], [ 49.54388427734375, -12.384445190429688 ], [ 49.590827941894531, -12.485279083251953 ], [ 49.595550537109375, -12.507778167724609 ], [ 49.596664428710938, -12.520278930664062 ], [ 49.596664428710938, -12.532501220703125 ], [ 49.592498779296875, -12.54222297668457 ], [ 49.574886322021484, -12.565102577209473 ], [ 49.576526641845703, -12.582492828369141 ], [ 49.574558258056641, -12.599882125854492 ], [ 49.564552307128906, -12.613826751708984 ], [ 49.562091827392578, -12.633349418640137 ], [ 49.570621490478516, -12.648771286010742 ], [ 49.594295501708984, -12.650193214416504 ], [ 49.653610229492188, -12.701946258544922 ], [ 49.798049926757812, -12.816113471984863 ], [ 49.894721984863281, -12.950000762939453 ], [ 49.900276184082031, -12.958333969116211 ], [ 49.943328857421875, -13.039445877075195 ], [ 49.947494506835938, -13.074445724487305 ], [ 49.947219848632812, -13.086668014526367 ], [ 49.943603515625, -13.096944808959961 ], [ 49.940826416015625, -13.118890762329102 ], [ 49.933326721191406, -13.181112289428711 ], [ 49.943603515625, -13.224445343017578 ], [ 49.979438781738281, -13.346668243408203 ], [ 50.02471923828125, -13.449445724487305 ], [ 50.038055419921875, -13.463890075683594 ], [ 50.034439086914062, -13.483890533447266 ], [ 50.034439086914062, -13.496112823486328 ], [ 50.037773132324219, -13.513334274291992 ], [ 50.043327331542969, -13.521666526794434 ], [ 50.051109313964844, -13.529167175292969 ], [ 50.059440612792969, -13.534723281860352 ], [ 50.066665649414062, -13.541667938232422 ], [ 50.071388244628906, -13.550556182861328 ], [ 50.101943969726562, -13.627500534057617 ], [ 50.138053894042969, -13.761945724487305 ], [ 50.140274047851562, -13.773612976074219 ], [ 50.148330688476562, -13.820278167724609 ], [ 50.14971923828125, -13.832778930664062 ], [ 50.150276184082031, -13.852500915527344 ], [ 50.146659851074219, -13.876667022705078 ], [ 50.145271301269531, -13.896389007568359 ], [ 50.1441650390625, -13.988889694213867 ], [ 50.14971923828125, -13.998611450195312 ], [ 50.16082763671875, -14.01500129699707 ], [ 50.174995422363281, -14.049446105957031 ], [ 50.176109313964844, -14.061944961547852 ], [ 50.171104431152344, -14.105001449584961 ], [ 50.160552978515625, -14.201667785644531 ], [ 50.159996032714844, -14.221668243408203 ], [ 50.163330078125, -14.231945037841797 ], [ 50.168327331542969, -14.241666793823242 ], [ 50.178607940673828, -14.252223968505859 ], [ 50.192214965820312, -14.259445190429688 ], [ 50.202774047851562, -14.269862174987793 ], [ 50.215553283691406, -14.291945457458496 ], [ 50.216941833496094, -14.307639122009277 ], [ 50.213882446289062, -14.342500686645508 ], [ 50.203887939453125, -14.374723434448242 ], [ 50.192214965820312, -14.418611526489258 ], [ 50.190826416015625, -14.431112289428711 ], [ 50.1905517578125, -14.451667785644531 ], [ 50.199996948242188, -14.570278167724609 ], [ 50.238327026367188, -14.711389541625977 ], [ 50.271942138671875, -14.826112747192383 ], [ 50.299995422363281, -14.905000686645508 ], [ 50.337493896484375, -14.998611450195312 ], [ 50.401107788085938, -15.0977783203125 ], [ 50.433609008789062, -15.145833969116211 ], [ 50.48388671875, -15.203889846801758 ], [ 50.496780395507812, -15.249452590942383 ], [ 50.498054504394531, -15.262779235839844 ], [ 50.501388549804688, -15.308889389038086 ], [ 50.501388549804688, -15.322778701782227 ], [ 50.482772827148438, -15.405834197998047 ], [ 50.433609008789062, -15.580001831054688 ], [ 50.326385498046875, -15.818889617919922 ], [ 50.299720764160156, -15.873611450195312 ], [ 50.240829467773438, -15.968889236450195 ], [ 50.232215881347656, -15.974445343017578 ], [ 50.172775268554688, -15.97972297668457 ], [ 50.137931823730469, -15.927515029907227 ], [ 50.100551605224609, -15.920555114746094 ], [ 50.033882141113281, -15.866945266723633 ], [ 50.029159545898438, -15.857500076293945 ], [ 50.026382446289062, -15.810556411743164 ], [ 50.026664733886719, -15.798334121704102 ], [ 49.961662292480469, -15.681112289428711 ], [ 49.903884887695312, -15.561111450195312 ], [ 49.903053283691406, -15.548055648803711 ], [ 49.9022216796875, -15.468334197998047 ], [ 49.866104125976562, -15.432500839233398 ], [ 49.824165344238281, -15.431667327880859 ], [ 49.751388549804688, -15.435834884643555 ], [ 49.729995727539062, -15.442779541015625 ], [ 49.720550537109375, -15.447500228881836 ], [ 49.69610595703125, -15.46583366394043 ], [ 49.67694091796875, -15.488334655761719 ], [ 49.664443969726562, -15.504722595214844 ], [ 49.641387939453125, -15.537500381469727 ], [ 49.63360595703125, -15.557500839233398 ], [ 49.632774353027344, -15.570556640625 ], [ 49.633888244628906, -15.583612442016602 ], [ 49.657493591308594, -15.68194580078125 ], [ 49.666664123535156, -15.706111907958984 ], [ 49.675827026367188, -15.725278854370117 ], [ 49.734024047851562, -15.904167175292969 ], [ 49.730968475341797, -15.921945571899414 ], [ 49.7177734375, -15.945556640625 ], [ 49.704719543457031, -15.964168548583984 ], [ 49.687774658203125, -16.010002136230469 ], [ 49.680553436279297, -16.035001754760742 ], [ 49.681385040283203, -16.055002212524414 ], [ 49.695831298828125, -16.098056793212891 ], [ 49.702079772949219, -16.114170074462891 ], [ 49.709716796875, -16.12750244140625 ], [ 49.720550537109375, -16.138057708740234 ], [ 49.729721069335938, -16.145557403564453 ], [ 49.748886108398438, -16.153335571289062 ], [ 49.759162902832031, -16.15472412109375 ], [ 49.7691650390625, -16.152225494384766 ], [ 49.816940307617188, -16.18194580078125 ], [ 49.836105346679688, -16.197223663330078 ], [ 49.850273132324219, -16.21722412109375 ], [ 49.854022979736328, -16.231391906738281 ], [ 49.852218627929688, -16.247501373291016 ], [ 49.838333129882812, -16.286666870117188 ], [ 49.832496643066406, -16.308612823486328 ], [ 49.825412750244141, -16.343334197998047 ], [ 49.825553894042969, -16.365558624267578 ], [ 49.830276489257812, -16.395278930664062 ], [ 49.834442138671875, -16.416389465332031 ], [ 49.848884582519531, -16.424167633056641 ], [ 49.859443664550781, -16.4344482421875 ], [ 49.863052368164062, -16.455280303955078 ], [ 49.862777709960938, -16.473892211914062 ], [ 49.848609924316406, -16.554168701171875 ], [ 49.845832824707031, -16.565834045410156 ], [ 49.7994384765625, -16.641670227050781 ], [ 49.791938781738281, -16.651390075683594 ], [ 49.772499084472656, -16.671947479248047 ], [ 49.753883361816406, -16.689723968505859 ], [ 49.743049621582031, -16.697223663330078 ], [ 49.724159240722656, -16.705833435058594 ], [ 49.719161987304688, -16.714725494384766 ], [ 49.717220306396484, -16.728336334228516 ], [ 49.720832824707031, -16.756946563720703 ], [ 49.736663818359375, -16.786392211914062 ], [ 49.743049621582031, -16.796112060546875 ], [ 49.75, -16.805835723876953 ], [ 49.759437561035156, -16.814167022705078 ], [ 49.779441833496094, -16.826114654541016 ], [ 49.788604736328125, -16.830280303955078 ], [ 49.638053894042969, -16.887500762939453 ], [ 49.6280517578125, -16.889724731445312 ], [ 49.617218017578125, -16.894168853759766 ], [ 49.606941223144531, -16.900558471679688 ], [ 49.596939086914062, -16.908611297607422 ], [ 49.59027099609375, -16.919445037841797 ], [ 49.531661987304688, -17.046390533447266 ], [ 49.428886413574219, -17.297225952148438 ], [ 49.422775268554688, -17.315834045410156 ], [ 49.420555114746094, -17.326114654541016 ], [ 49.41888427734375, -17.343891143798828 ], [ 49.421661376953125, -17.362503051757812 ], [ 49.435272216796875, -17.381946563720703 ], [ 49.454715728759766, -17.41541862487793 ], [ 49.475273132324219, -17.486946105957031 ], [ 49.488609313964844, -17.554447174072266 ], [ 49.509719848632812, -17.678337097167969 ], [ 49.5111083984375, -17.689445495605469 ], [ 49.510276794433594, -17.711391448974609 ], [ 49.501106262207031, -17.771114349365234 ], [ 49.4949951171875, -17.793891906738281 ], [ 49.481666564941406, -17.831390380859375 ], [ 49.455551147460938, -17.915836334228516 ], [ 49.445831298828125, -17.94805908203125 ], [ 49.433326721191406, -17.9969482421875 ], [ 49.414443969726562, -18.072502136230469 ], [ 49.384162902832031, -18.213890075683594 ], [ 49.372215270996094, -18.312778472900391 ], [ 49.370826721191406, -18.325279235839844 ], [ 49.368331909179688, -18.351390838623047 ], [ 49.304161071777344, -18.537223815917969 ], [ 49.23138427734375, -18.703891754150391 ], [ 49.167770385742188, -18.879447937011719 ], [ 49.143882751464844, -18.940280914306641 ], [ 49.130271911621094, -18.970558166503906 ], [ 49.097496032714844, -19.034725189208984 ], [ 49.075271606445312, -19.068889617919922 ], [ 49.066383361816406, -19.088058471679688 ], [ 49.031661987304688, -19.194446563720703 ], [ 49.024993896484375, -19.215835571289062 ], [ 49.018051147460938, -19.250835418701172 ], [ 49.01416015625, -19.276111602783203 ], [ 49.002494812011719, -19.334445953369141 ], [ 48.996383666992188, -19.356391906738281 ], [ 48.988883972167969, -19.376945495605469 ], [ 48.956382751464844, -19.457778930664062 ], [ 48.921943664550781, -19.531669616699219 ], [ 48.892776489257812, -19.588611602783203 ], [ 48.883049011230469, -19.607780456542969 ], [ 48.87554931640625, -19.628334045410156 ], [ 48.869438171386719, -19.650279998779297 ], [ 48.861663818359375, -19.6844482421875 ], [ 48.849159240722656, -19.742778778076172 ], [ 48.844444274902344, -19.76611328125 ], [ 48.833610534667969, -19.825279235839844 ], [ 48.81304931640625, -19.933055877685547 ], [ 48.778053283691406, -20.039169311523438 ], [ 48.759162902832031, -20.091114044189453 ], [ 48.750831604003906, -20.111114501953125 ], [ 48.722221374511719, -20.167224884033203 ], [ 48.705825805664062, -20.193058013916016 ], [ 48.691383361816406, -20.221668243408203 ], [ 48.654441833496094, -20.298336029052734 ], [ 48.636383056640625, -20.336669921875 ], [ 48.616661071777344, -20.388057708740234 ], [ 48.6077880859375, -20.416175842285156 ], [ 48.601104736328125, -20.439445495605469 ], [ 48.584999084472656, -20.493614196777344 ], [ 48.539443969726562, -20.645557403564453 ], [ 48.521110534667969, -20.697502136230469 ], [ 48.4677734375, -20.914169311523438 ], [ 48.456382751464844, -20.985557556152344 ], [ 48.370552062988281, -21.292224884033203 ], [ 48.304161071777344, -21.479724884033203 ], [ 48.2177734375, -21.745002746582031 ], [ 48.140830993652344, -21.923057556152344 ], [ 48.120277404785156, -21.95916748046875 ], [ 48.110275268554688, -21.978336334228516 ], [ 48.050827026367188, -22.110557556152344 ], [ 48.015274047851562, -22.191112518310547 ], [ 48.0030517578125, -22.220558166503906 ], [ 47.919715881347656, -22.43194580078125 ], [ 47.908050537109375, -22.461944580078125 ], [ 47.900833129882812, -22.485836029052734 ], [ 47.894439697265625, -22.513889312744141 ], [ 47.864715576171875, -22.669445037841797 ], [ 47.847770690917969, -22.781669616699219 ], [ 47.842498779296875, -22.826667785644531 ], [ 47.8397216796875, -22.849445343017578 ], [ 47.83721923828125, -22.867225646972656 ], [ 47.8316650390625, -22.888336181640625 ], [ 47.810554504394531, -22.968334197998047 ], [ 47.802772521972656, -22.997779846191406 ], [ 47.759719848632812, -23.138336181640625 ], [ 47.712493896484375, -23.339725494384766 ], [ 47.628883361816406, -23.561668395996094 ], [ 47.616943359375, -23.6219482421875 ], [ 47.615829467773438, -23.643058776855469 ], [ 47.612495422363281, -23.664447784423828 ], [ 47.58721923828125, -23.794170379638672 ], [ 47.575828552246094, -23.839168548583984 ], [ 47.563331604003906, -23.872501373291016 ], [ 47.498054504394531, -24.015003204345703 ], [ 47.488052368164062, -24.030834197998047 ], [ 47.426177978515625, -24.124126434326172 ], [ 47.403610229492188, -24.177780151367188 ], [ 47.339439392089844, -24.306114196777344 ], [ 47.319717407226562, -24.412502288818359 ], [ 47.3155517578125, -24.458889007568359 ], [ 47.31304931640625, -24.471111297607422 ], [ 47.303329467773438, -24.503890991210938 ], [ 47.281661987304688, -24.557502746582031 ], [ 47.1986083984375, -24.741390228271484 ], [ 47.148605346679688, -24.813613891601562 ], [ 47.135276794433594, -24.831668853759766 ], [ 47.130134582519531, -24.846113204956055 ], [ 47.127220153808594, -24.861114501953125 ], [ 47.127216339111328, -24.875417709350586 ], [ 47.131664276123047, -24.895000457763672 ], [ 47.137218475341797, -24.91278076171875 ], [ 47.133049011230469, -24.928058624267578 ], [ 47.094444274902344, -24.973892211914062 ], [ 46.906387329101562, -25.068611145019531 ], [ 46.730270385742188, -25.167503356933594 ], [ 46.719444274902344, -25.171390533447266 ], [ 46.646659851074219, -25.191669464111328 ], [ 46.584159851074219, -25.182781219482422 ], [ 46.544166564941406, -25.175003051757812 ], [ 46.523330688476562, -25.166946411132812 ], [ 46.5030517578125, -25.161666870117188 ], [ 46.413330078125, -25.161666870117188 ], [ 46.336662292480469, -25.173614501953125 ], [ 46.29083251953125, -25.186111450195312 ], [ 46.258049011230469, -25.196945190429688 ], [ 46.193328857421875, -25.219448089599609 ], [ 46.171943664550781, -25.226947784423828 ], [ 45.963050842285156, -25.310001373291016 ], [ 45.923049926757812, -25.328891754150391 ], [ 45.904716491699219, -25.339447021484375 ], [ 45.794441223144531, -25.403335571289062 ], [ 45.739166259765625, -25.436111450195312 ], [ 45.713607788085938, -25.453891754150391 ], [ 45.6986083984375, -25.468055725097656 ], [ 45.670555114746094, -25.497222900390625 ], [ 45.653327941894531, -25.509166717529297 ], [ 45.571662902832031, -25.5513916015625 ], [ 45.550277709960938, -25.562225341796875 ], [ 45.5302734375, -25.568611145019531 ], [ 45.487777709960938, -25.575557708740234 ], [ 45.462493896484375, -25.578334808349609 ], [ 45.2147216796875, -25.588336944580078 ], [ 45.127357482910156, -25.548614501953125 ], [ 45.118049621582031, -25.535003662109375 ], [ 45.098052978515625, -25.520835876464844 ], [ 44.914718627929688, -25.402500152587891 ], [ 44.808326721191406, -25.335556030273438 ], [ 44.782493591308594, -25.321113586425781 ], [ 44.769721984863281, -25.316669464111328 ], [ 44.74749755859375, -25.310558319091797 ], [ 44.711387634277344, -25.303890228271484 ], [ 44.587776184082031, -25.293891906738281 ], [ 44.522216796875, -25.286392211914062 ], [ 44.443328857421875, -25.272781372070312 ], [ 44.355827331542969, -25.255558013916016 ], [ 44.349159240722656, -25.246391296386719 ], [ 44.297702789306641, -25.163125991821289 ], [ 44.323051452636719, -25.167503356933594 ], [ 44.332496643066406, -25.176670074462891 ], [ 44.349998474121094, -25.194446563720703 ], [ 44.368606567382812, -25.215557098388672 ], [ 44.38916015625, -25.232780456542969 ], [ 44.399162292480469, -25.230278015136719 ], [ 44.40777587890625, -25.220836639404297 ], [ 44.411941528320312, -25.211669921875 ], [ 44.401939392089844, -25.193336486816406 ], [ 44.33721923828125, -25.153057098388672 ], [ 44.184440612792969, -25.069168090820312 ], [ 44.174720764160156, -25.064723968505859 ], [ 44.162773132324219, -25.0594482421875 ], [ 44.150276184082031, -25.055835723876953 ], [ 44.139717102050781, -25.053890228271484 ], [ 44.129714965820312, -25.057781219482422 ], [ 44.119720458984375, -25.062778472900391 ], [ 44.108329772949219, -25.061668395996094 ], [ 44.097496032714844, -25.054447174072266 ], [ 44.032218933105469, -25.004447937011719 ], [ 44.017078399658203, -24.9808349609375 ], [ 44.023048400878906, -24.958335876464844 ], [ 44.021942138671875, -24.944446563720703 ], [ 44.016387939453125, -24.920280456542969 ], [ 44.0111083984375, -24.899723052978516 ], [ 44.005271911621094, -24.880279541015625 ], [ 43.993888854980469, -24.86138916015625 ], [ 43.985275268554688, -24.85028076171875 ], [ 43.967498779296875, -24.830280303955078 ], [ 43.953887939453125, -24.810836791992188 ], [ 43.925827026367188, -24.761112213134766 ], [ 43.917770385742188, -24.741111755371094 ], [ 43.914302825927734, -24.717641830444336 ], [ 43.928886413574219, -24.688056945800781 ], [ 43.931247711181641, -24.672779083251953 ], [ 43.922771453857422, -24.634031295776367 ], [ 43.905830383300781, -24.598892211914062 ], [ 43.834442138671875, -24.505279541015625 ], [ 43.819442749023438, -24.491668701171875 ], [ 43.797492980957031, -24.477222442626953 ], [ 43.787216186523438, -24.471389770507812 ], [ 43.765830993652344, -24.462501525878906 ], [ 43.75555419921875, -24.456390380859375 ], [ 43.732215881347656, -24.438613891601562 ], [ 43.711936950683594, -24.417224884033203 ], [ 43.691665649414062, -24.384445190429688 ], [ 43.67138671875, -24.331668853759766 ], [ 43.664161682128906, -24.311389923095703 ], [ 43.664443969726562, -24.188892364501953 ], [ 43.664718627929688, -24.043613433837891 ], [ 43.662216186523438, -23.868614196777344 ], [ 43.653190612792969, -23.824447631835938 ], [ 43.648887634277344, -23.810001373291016 ], [ 43.624992370605469, -23.761669158935547 ], [ 43.636383056640625, -23.657779693603516 ], [ 43.638328552246094, -23.647781372070312 ], [ 43.64971923828125, -23.623750686645508 ], [ 43.673332214355469, -23.6138916015625 ], [ 43.703887939453125, -23.602779388427734 ], [ 43.735275268554688, -23.588890075683594 ], [ 43.747913360595703, -23.577363967895508 ], [ 43.759994506835938, -23.468057632446289 ], [ 43.7530517578125, -23.452224731445312 ], [ 43.745277404785156, -23.443058013916016 ], [ 43.687492370605469, -23.395000457763672 ], [ 43.646385192871094, -23.361946105957031 ], [ 43.636940002441406, -23.357501983642578 ], [ 43.63055419921875, -23.347503662109375 ], [ 43.614997863769531, -23.311389923095703 ], [ 43.611663818359375, -23.301670074462891 ], [ 43.606941223144531, -23.278057098388672 ], [ 43.605827331542969, -23.265834808349609 ], [ 43.597496032714844, -23.170833587646484 ], [ 43.596939086914062, -23.150836944580078 ], [ 43.597770690917969, -23.129447937011719 ], [ 43.596939086914062, -23.099166870117188 ], [ 43.588050842285156, -23.078334808349609 ], [ 43.578330993652344, -23.067779541015625 ], [ 43.555831909179688, -23.04888916015625 ], [ 43.520553588867188, -23.023056030273438 ], [ 43.504714965820312, -23.012779235839844 ], [ 43.492774963378906, -23.008056640625 ], [ 43.482215881347656, -22.997501373291016 ], [ 43.392776489257812, -22.895835876464844 ], [ 43.375831604003906, -22.875278472900391 ], [ 43.366104125976562, -22.861946105957031 ], [ 43.3619384765625, -22.852779388427734 ], [ 43.358055114746094, -22.841667175292969 ], [ 43.348884582519531, -22.800834655761719 ], [ 43.317214965820312, -22.659446716308594 ], [ 43.286109924316406, -22.498058319091797 ], [ 43.238883972167969, -22.282501220703125 ], [ 43.260826110839844, -22.213336944580078 ], [ 43.25054931640625, -22.16278076171875 ], [ 43.247215270996094, -22.152225494384766 ], [ 43.236824035644531, -22.068744659423828 ], [ 43.279159545898438, -21.908336639404297 ], [ 43.314437866210938, -21.882778167724609 ], [ 43.328048706054688, -21.846389770507812 ], [ 43.332771301269531, -21.776947021484375 ], [ 43.334159851074219, -21.758613586425781 ], [ 43.421104431152344, -21.670558929443359 ], [ 43.431106567382812, -21.663890838623047 ], [ 43.447776794433594, -21.66166877746582 ], [ 43.472358703613281, -21.668056488037109 ], [ 43.469444274902344, -21.598056793212891 ], [ 43.466110229492188, -21.476390838623047 ], [ 43.466110229492188, -21.463336944580078 ], [ 43.476387023925781, -21.395557403564453 ], [ 43.47833251953125, -21.383335113525391 ], [ 43.481941223144531, -21.372501373291016 ], [ 43.50054931640625, -21.333889007568359 ], [ 43.544998168945312, -21.3013916015625 ], [ 43.579719543457031, -21.280555725097656 ], [ 43.591659545898438, -21.278892517089844 ], [ 43.616104125976562, -21.276390075683594 ], [ 43.664993286132812, -21.272224426269531 ], [ 43.698883056640625, -21.271945953369141 ], [ 43.71221923828125, -21.273891448974609 ], [ 43.722221374511719, -21.276947021484375 ], [ 43.730270385742188, -21.283611297607422 ], [ 43.741104125976562, -21.286113739013672 ], [ 43.768325805664062, -21.270557403564453 ], [ 43.776664733886719, -21.264724731445312 ], [ 43.802497863769531, -21.233333587646484 ], [ 43.808609008789062, -21.22528076171875 ], [ 43.819717407226562, -21.207225799560547 ], [ 43.841110229492188, -21.156948089599609 ], [ 43.861381530761719, -21.080001831054688 ], [ 43.87554931640625, -21.008892059326172 ], [ 43.878883361816406, -20.945835113525391 ], [ 43.897773742675781, -20.879169464111328 ], [ 43.906661987304688, -20.859447479248047 ], [ 43.911659240722656, -20.850002288818359 ], [ 43.949440002441406, -20.788059234619141 ], [ 43.968048095703125, -20.764167785644531 ], [ 43.991943359375, -20.743614196777344 ], [ 44.002777099609375, -20.746112823486328 ], [ 44.015274047851562, -20.745834350585938 ], [ 44.023605346679688, -20.740001678466797 ], [ 44.036109924316406, -20.723892211914062 ], [ 44.041664123535156, -20.715000152587891 ], [ 44.079437255859375, -20.651947021484375 ], [ 44.100555419921875, -20.600833892822266 ], [ 44.104164123535156, -20.590000152587891 ], [ 44.176109313964844, -20.441947937011719 ], [ 44.266387939453125, -20.294445037841797 ], [ 44.34027099609375, -20.157222747802734 ], [ 44.35333251953125, -20.137222290039062 ], [ 44.361106872558594, -20.128612518310547 ], [ 44.370826721191406, -20.119724273681641 ], [ 44.389999389648438, -20.103336334228516 ], [ 44.39971923828125, -20.096111297607422 ], [ 44.428886413574219, -20.077777862548828 ], [ 44.437492370605469, -20.068611145019531 ], [ 44.479721069335938, -19.980556488037109 ], [ 44.482772827148438, -19.965835571289062 ], [ 44.482498168945312, -19.941390991210938 ], [ 44.471939086914062, -19.877363204956055 ], [ 44.440277099609375, -19.845558166503906 ], [ 44.426109313964844, -19.841253280639648 ], [ 44.410270690917969, -19.840278625488281 ], [ 44.39971923828125, -19.832500457763672 ], [ 44.387496948242188, -19.812225341796875 ], [ 44.370830535888672, -19.77708625793457 ], [ 44.440273284912109, -19.552780151367188 ], [ 44.454719543457031, -19.544723510742188 ], [ 44.464996337890625, -19.545001983642578 ], [ 44.476104736328125, -19.542503356933594 ], [ 44.483188629150391, -19.526947021484375 ], [ 44.482772827148438, -19.502780914306641 ], [ 44.469161987304688, -19.438335418701172 ], [ 44.438606262207031, -19.378890991210938 ], [ 44.425552368164062, -19.357780456542969 ], [ 44.351661682128906, -19.251392364501953 ], [ 44.336387634277344, -19.230003356933594 ], [ 44.286384582519531, -19.169170379638672 ], [ 44.265670776367188, -19.144935607910156 ], [ 44.261940002441406, -19.140003204345703 ], [ 44.23138427734375, -19.081111907958984 ], [ 44.22735595703125, -19.066112518310547 ], [ 44.23138427734375, -18.973613739013672 ], [ 44.248607635498047, -18.961669921875 ], [ 44.261665344238281, -18.853057861328125 ], [ 44.261383056640625, -18.841945648193359 ], [ 44.256942749023438, -18.820556640625 ], [ 44.241661071777344, -18.770278930664062 ], [ 44.231109619140625, -18.741111755371094 ], [ 44.199165344238281, -18.667503356933594 ], [ 44.163604736328125, -18.591114044189453 ], [ 44.158882141113281, -18.582225799560547 ], [ 44.113883972167969, -18.513614654541016 ], [ 44.105552673339844, -18.501667022705078 ], [ 44.082221984863281, -18.470001220703125 ], [ 44.072494506835938, -18.45916748046875 ], [ 44.063331604003906, -18.451389312744141 ], [ 44.054161071777344, -18.441947937011719 ], [ 44.040550231933594, -18.423057556152344 ], [ 44.035690307617188, -18.408058166503906 ], [ 44.043052673339844, -18.340278625488281 ], [ 44.045829772949219, -18.240558624267578 ], [ 44.043609619140625, -18.201389312744141 ], [ 44.039443969726562, -18.167503356933594 ], [ 44.032913208007812, -18.131113052368164 ], [ 44.024578094482422, -18.112224578857422 ], [ 44.011940002441406, -18.056392669677734 ], [ 44.003608703613281, -17.980278015136719 ], [ 44.001388549804688, -17.958889007568359 ], [ 44.001106262207031, -17.948612213134766 ], [ 44.002777099609375, -17.929168701171875 ], [ 44.004714965820312, -17.917503356933594 ], [ 44.01361083984375, -17.87750244140625 ], [ 44.021942138671875, -17.865837097167969 ], [ 44.026939392089844, -17.846946716308594 ], [ 44.0302734375, -17.817501068115234 ], [ 44.031944274902344, -17.775558471679688 ], [ 44.031387329101562, -17.756946563720703 ], [ 43.993606567382812, -17.692779541015625 ], [ 43.988052368164062, -17.683612823486328 ], [ 43.969444274902344, -17.662223815917969 ], [ 43.959716796875, -17.652225494384766 ], [ 43.943328857421875, -17.632503509521484 ], [ 43.928886413574219, -17.611946105957031 ], [ 43.9244384765625, -17.600833892822266 ], [ 43.921661376953125, -17.580558776855469 ], [ 43.922775268554688, -17.570278167724609 ], [ 43.929443359375, -17.512222290039062 ], [ 43.931388854980469, -17.500556945800781 ], [ 43.937217712402344, -17.479446411132812 ], [ 43.947219848632812, -17.450836181640625 ], [ 43.952499389648438, -17.439445495605469 ], [ 43.964164733886719, -17.421112060546875 ], [ 44.039718627929688, -17.317222595214844 ], [ 44.137771606445312, -17.1763916015625 ], [ 44.1824951171875, -17.098056793212891 ], [ 44.21527099609375, -17.037223815917969 ], [ 44.275276184082031, -16.919723510742188 ], [ 44.346107482910156, -16.796947479248047 ], [ 44.351661682128906, -16.788333892822266 ], [ 44.363327026367188, -16.779167175292969 ], [ 44.373603820800781, -16.772502899169922 ], [ 44.383331298828125, -16.763889312744141 ], [ 44.392494201660156, -16.753334045410156 ], [ 44.4324951171875, -16.70361328125 ], [ 44.437774658203125, -16.692222595214844 ], [ 44.465827941894531, -16.506668090820312 ], [ 44.466110229492188, -16.495834350585938 ], [ 44.463333129882812, -16.477779388427734 ], [ 44.458610534667969, -16.466667175292969 ], [ 44.453330993652344, -16.457500457763672 ], [ 44.436943054199219, -16.433334350585938 ], [ 44.421943664550781, -16.413059234619141 ], [ 44.409721374511719, -16.393333435058594 ], [ 44.404441833496094, -16.382778167724609 ], [ 44.399578094482422, -16.369167327880859 ], [ 44.398052215576172, -16.341667175292969 ], [ 44.438888549804688, -16.214725494384766 ], [ 44.442771911621094, -16.203891754150391 ], [ 44.449440002441406, -16.195278167724609 ], [ 44.460273742675781, -16.183891296386719 ], [ 44.488883972167969, -16.177223205566406 ], [ 44.503746032714844, -16.179862976074219 ], [ 44.573051452636719, -16.186946868896484 ], [ 44.609443664550781, -16.188335418701172 ], [ 44.803054809570312, -16.199722290039062 ], [ 44.873603820800781, -16.210281372070312 ], [ 45.0, -16.142684936523438 ], [ 45.034439086914062, -16.120555877685547 ], [ 45.049995422363281, -16.107780456542969 ], [ 45.059577941894531, -16.096530914306641 ], [ 45.073326110839844, -16.074169158935547 ], [ 45.091110229492188, -16.049446105957031 ], [ 45.129997253417969, -16.003890991210938 ], [ 45.140693664550781, -15.993473052978516 ], [ 45.216941833496094, -15.950279235839844 ], [ 45.254714965820312, -15.931390762329102 ], [ 45.264999389648438, -15.927501678466797 ], [ 45.273887634277344, -15.932779312133789 ], [ 45.2772216796875, -15.943056106567383 ], [ 45.293609619140625, -16.055557250976562 ], [ 45.291107177734375, -16.067222595214844 ], [ 45.288604736328125, -16.096807479858398 ], [ 45.291664123535156, -16.110557556152344 ], [ 45.302635192871094, -16.117778778076172 ], [ 45.326942443847656, -16.110279083251953 ], [ 45.335548400878906, -16.105003356933594 ], [ 45.395553588867188, -16.066947937011719 ], [ 45.412773132324219, -16.041389465332031 ], [ 45.411109924316406, -16.031112670898438 ], [ 45.401107788085938, -16.026668548583984 ], [ 45.392219543457031, -16.033287048339844 ], [ 45.374443054199219, -16.006389617919922 ], [ 45.367080688476562, -15.983334541320801 ], [ 45.390548706054688, -15.973333358764648 ], [ 45.572494506835938, -15.949167251586914 ], [ 45.594161987304688, -15.98750114440918 ], [ 45.593605041503906, -15.998611450195312 ], [ 45.589164733886719, -16.008056640625 ], [ 45.577217102050781, -16.024169921875 ], [ 45.576381683349609, -16.038335800170898 ], [ 45.606941223144531, -16.055278778076172 ], [ 45.617774963378906, -16.057502746582031 ], [ 45.627494812011719, -16.036666870117188 ], [ 45.645271301269531, -15.907222747802734 ], [ 45.645553588867188, -15.894723892211914 ], [ 45.643882751464844, -15.883056640625 ], [ 45.716659545898438, -15.791667938232422 ], [ 45.739166259765625, -15.797779083251953 ], [ 45.8074951171875, -15.814723968505859 ], [ 45.82611083984375, -15.814723968505859 ], [ 45.834716796875, -15.809446334838867 ], [ 45.868888854980469, -15.786945343017578 ], [ 45.878326416015625, -15.782222747802734 ], [ 45.91082763671875, -15.773056030273438 ], [ 45.92138671875, -15.772500991821289 ], [ 45.957496643066406, -15.783889770507812 ], [ 45.956382751464844, -15.804445266723633 ], [ 45.951942443847656, -15.83527946472168 ], [ 45.955825805664062, -15.845001220703125 ], [ 45.964996337890625, -15.853334426879883 ], [ 46.063606262207031, -15.871946334838867 ], [ 46.072494506835938, -15.861112594604492 ], [ 46.071937561035156, -15.810834884643555 ], [ 46.070549011230469, -15.784168243408203 ], [ 46.060554504394531, -15.783056259155273 ], [ 46.048881530761719, -15.788888931274414 ], [ 46.038604736328125, -15.798334121704102 ], [ 46.031105041503906, -15.807779312133789 ], [ 46.021659851074219, -15.816389083862305 ], [ 46.011383056640625, -15.823890686035156 ], [ 46.004856109619141, -15.808889389038086 ], [ 46.013053894042969, -15.793611526489258 ], [ 46.02777099609375, -15.775278091430664 ], [ 46.048332214355469, -15.756668090820312 ], [ 46.068885803222656, -15.740001678466797 ], [ 46.079719543457031, -15.732224464416504 ], [ 46.099441528320312, -15.720277786254883 ], [ 46.120552062988281, -15.711112976074219 ], [ 46.151382446289062, -15.703611373901367 ], [ 46.171943664550781, -15.703611373901367 ], [ 46.201942443847656, -15.705001831054688 ], [ 46.232498168945312, -15.714168548583984 ], [ 46.246109008789062, -15.759723663330078 ], [ 46.235549926757812, -15.806112289428711 ], [ 46.246665954589844, -15.846944808959961 ], [ 46.257217407226562, -15.878334045410156 ], [ 46.265830993652344, -15.901111602783203 ], [ 46.279998779296875, -15.932500839233398 ], [ 46.293052673339844, -15.951946258544922 ], [ 46.302215576171875, -15.961112976074219 ], [ 46.32110595703125, -15.973333358764648 ], [ 46.331108093261719, -15.977222442626953 ], [ 46.477775573730469, -15.961389541625977 ], [ 46.447219848632812, -15.885833740234375 ], [ 46.413055419921875, -15.853889465332031 ], [ 46.380134582519531, -15.835695266723633 ], [ 46.339996337890625, -15.778057098388672 ], [ 46.303470611572266, -15.712362289428711 ], [ 46.308883666992188, -15.686389923095703 ], [ 46.312774658203125, -15.674722671508789 ], [ 46.32916259765625, -15.645000457763672 ] ] ], [ [ [ 48.331939697265625, -13.420000076293945 ], [ 48.222358703613281, -13.405418395996094 ], [ 48.207218170166016, -13.393056869506836 ], [ 48.198051452636719, -13.364168167114258 ], [ 48.192214965820312, -13.338056564331055 ], [ 48.191665649414062, -13.318056106567383 ], [ 48.196662902832031, -13.270000457763672 ], [ 48.266387939453125, -13.20250129699707 ], [ 48.284164428710938, -13.195972442626953 ], [ 48.294166564941406, -13.195278167724609 ], [ 48.320831298828125, -13.197917938232422 ], [ 48.324996948242188, -13.211112976074219 ], [ 48.3619384765625, -13.394166946411133 ], [ 48.361522674560547, -13.408334732055664 ], [ 48.342498779296875, -13.418055534362793 ], [ 48.331939697265625, -13.420000076293945 ] ] ], [ [ [ 49.827217102050781, -17.095279693603516 ], [ 49.819999694824219, -17.088336944580078 ], [ 49.817634582519531, -17.044307708740234 ], [ 49.860549926757812, -16.913890838623047 ], [ 49.867218017578125, -16.902778625488281 ], [ 49.961662292480469, -16.759723663330078 ], [ 50.010551452636719, -16.725559234619141 ], [ 49.952217102050781, -16.878612518310547 ], [ 49.939720153808594, -16.907501220703125 ], [ 49.909996032714844, -16.958889007568359 ], [ 49.833610534667969, -17.089725494384766 ], [ 49.827217102050781, -17.095279693603516 ] ] ] ] } }
]
}
